NORAD_CAT_ID,OBJECT_NAME,OBJECT_TYPE,EPOCH,MEAN_MOTION,ECCENTRICITY,INCLINATION,RA_OF_ASC_NODE,ARG_OF_PERICENTER,MEAN_ANOMALY,BSTAR,MEAN_MOTION_DOT,MEAN_MOTION_DDOT,TLE_LINE0,TLE_LINE1,TLE_LINE2,SEMIMAJOR_AXIS,PERIOD,APOGEE,PERIGEE,DECAYED
52139.0,STARLINK-3730,PAYLOAD,2023-06-11 13:28:14,15.088459,7.33e-05,53.2163,257.8517,81.6315,278.476,0.00010104,1.321e-05,0.0,0 STARLINK-3730,1 52139U 22029BD  23162.56127839  .00001321  00000-0  10104-3 0  9996,2 52139  53.2163 257.8517 0000733  81.6315 278.4760 15.08845900 69508,6917.862,95.437,540.234,539.22,0.0
52139.0,STARLINK-3730,PAYLOAD,2023-06-12 06:57:29,15.08834623,7.63e-05,53.2163,254.5813,80.7002,279.4077,5.9364e-05,6.57e-06,0.0,0 STARLINK-3730,1 52139U 22029BD  23163.28992677  .00000657  00000-0  59364-4 0  9999,2 52139  53.2163 254.5813 0000763  80.7002 279.4077 15.08834623 69611,6917.897,95.438,540.29,539.234,0.0
52139.0,STARLINK-3730,PAYLOAD,2023-06-12 13:19:02,15.08836961,7.65e-05,53.2159,253.3923,89.7408,270.3672,7.2819e-05,8.71e-06,0.0,0 STARLINK-3730,1 52139U 22029BD  23163.55488508  .00000871  00000-0  72819-4 0  9990,2 52139  53.2159 253.3923 0000765  89.7408 270.3672 15.08836961 69658,6917.89,95.438,540.284,539.225,0.0
52139.0,STARLINK-3730,PAYLOAD,2023-06-13 03:37:30,15.0882793,6.4e-05,53.2163,250.7159,129.7909,230.3139,0.0001451,2.022e-05,0.0,0 STARLINK-3730,1 52139U 22029BD  23164.15104849  .00002022  00000-0  14510-3 0  9993,2 52139  53.2163 250.7159 0000640 129.7909 230.3139 15.08827930 69748,6917.917,95.438,540.225,539.34,0.0
52139.0,STARLINK-3730,PAYLOAD,2023-06-13 14:45:10,15.08889824,0.000132,53.2167,248.6348,124.3818,235.7299,-0.00070658,-0.00011531,0.0,0 STARLINK-3730,1 52139U 22029BD  23164.61470999 -.00011531  00000-0 -70658-3 0  9998,2 52139  53.2167 248.6348 0001320 124.3818 235.7299 15.08889824 69818,6917.728,95.434,540.506,538.68,0.0
52139.0,STARLINK-3730,PAYLOAD,2023-06-14 00:17:31,15.08837946,9.81e-05,53.2166,246.8488,86.342,273.7684,0.00010825,1.435e-05,0.0,0 STARLINK-3730,1 52139U 22029BD  23165.01216580  .00001435  00000-0  10825-3 0  9997,2 52139  53.2166 246.8488 0000981  86.3420 273.7684 15.08837946 69874,6917.887,95.438,540.43,539.073,0.0
52139.0,STARLINK-3730,PAYLOAD,2023-06-14 08:14:26,15.08838749,8.52e-05,53.2165,245.3618,79.888,280.2208,8.7002e-05,1.097e-05,0.0,0 STARLINK-3730,1 52139U 22029BD  23165.34336604  .00001097  00000-0  87002-4 0  9999,2 52139  53.2165 245.3618 0000852  79.8880 280.2208 15.08838749 69929,6917.884,95.438,540.339,539.16,0.0
52139.0,STARLINK-3730,PAYLOAD,2023-06-14 14:35:58,15.08846174,8.4e-05,53.2163,244.1718,79.9556,280.1531,0.00010044,1.311e-05,0.0,0 STARLINK-3730,1 52139U 22029BD  23165.60832067  .00001311  00000-0  10044-3 0  9992,2 52139  53.2163 244.1718 0000840  79.9556 280.1531 15.08846174 69966,6917.862,95.437,540.308,539.145,0.0
52139.0,STARLINK-3730,PAYLOAD,2023-06-15 09:40:37,15.0882969,8.88e-05,53.216,240.6026,80.7575,279.3518,7.9595e-05,9.79e-06,0.0,0 STARLINK-3730,1 52139U 22029BD  23166.40321312  .00000979  00000-0  79595-4 0  9993,2 52139  53.2160 240.6026 0000888  80.7575 279.3518 15.08829690 70083,6917.912,95.438,540.391,539.163,0.0
52139.0,STARLINK-3730,PAYLOAD,2023-06-15 11:16:00,15.08834503,9.02e-05,53.2159,240.3054,74.6693,285.4399,4.9182e-05,4.95e-06,0.0,0 STARLINK-3730,1 52139U 22029BD  23166.46945128  .00000495  00000-0  49182-4 0  9998,2 52139  53.2159 240.3054 0000902  74.6693 285.4399 15.08834503 70094,6917.897,95.438,540.386,539.138,0.0
52139.0,STARLINK-3730,PAYLOAD,2023-06-15 22:23:42,15.08843294,9.31e-05,53.2157,238.2238,78.6103,281.4993,5.7028e-05,6.2e-06,0.0,0 STARLINK-3730,1 52139U 22029BD  23166.93312547  .00000620  00000-0  57028-4 0  9991,2 52139  53.2157 238.2238 0000931  78.6103 281.4993 15.08843294 70165,6917.87,95.437,540.379,539.091,0.0
52139.0,STARLINK-3730,PAYLOAD,2023-06-16 11:06:46,15.0885349,0.000101,53.2152,235.8437,86.7222,273.3885,0.00013111,1.8e-05,0.0,0 STARLINK-3730,1 52139U 22029BD  23167.46303526  .00001800  00000-0  13111-3 0  9992,2 52139  53.2152 235.8437 0001010  86.7222 273.3885 15.08853490 70243,6917.839,95.437,540.403,539.005,0.0
52139.0,STARLINK-3730,PAYLOAD,2023-06-16 14:17:32,15.08858904,9.89e-05,53.2162,235.25,82.181,277.9295,0.00014314,1.992e-05,0.0,0 STARLINK-3730,1 52139U 22029BD  23167.59551129  .00001992  00000-0  14314-3 0  9998,2 52139  53.2162 235.2500 0000989  82.1810 277.9295 15.08858904 70268,6917.823,95.436,540.372,539.003,0.0
52139.0,STARLINK-3730,PAYLOAD,2023-06-17 10:57:34,15.08834598,8.56e-05,53.216,231.384,87.7334,272.3756,6.871e-05,8.06e-06,0.0,0 STARLINK-3730,1 52139U 22029BD  23168.45664971  .00000806  00000-0  68710-4 0  9997,2 52139  53.2160 231.3840 0000856  87.7334 272.3756 15.08834598 70393,6917.897,95.438,540.354,539.17,0.0
52139.0,STARLINK-3730,PAYLOAD,2023-06-17 14:08:20,15.0883895,8.82e-05,53.2157,230.7896,89.4182,270.6911,4.6291e-05,4.49e-06,0.0,0 STARLINK-3730,1 52139U 22029BD  23168.58912705  .00000449  00000-0  46291-4 0  9995,2 52139  53.2157 230.7896 0000882  89.4182 270.6911 15.08838950 70415,6917.884,95.438,540.359,539.138,0.0
52139.0,STARLINK-3730,PAYLOAD,2023-06-18 10:48:21,15.08840805,9.5e-05,53.2152,226.9238,89.222,270.8881,-5.9076e-07,-2.97e-06,0.0,0 STARLINK-3730,1 52139U 22029BD  23169.45024715 -.00000297  00000-0 -59076-6 0  9997,2 52139  53.2152 226.9238 0000950  89.2220 270.8881 15.08840805 70548,6917.878,95.438,540.4,539.086,0.0
52139.0,STARLINK-3730,PAYLOAD,2023-06-18 20:20:40,15.08840241,9.24e-05,53.2151,225.1398,86.3618,273.7479,-3.5271e-05,-8.49e-06,0.0,0 STARLINK-3730,1 52139U 22029BD  23169.84768746 -.00000849  00000-0 -35271-4 0  9991,2 52139  53.2151 225.1398 0000924  86.3618 273.7479 15.08840241 70601,6917.88,95.438,540.384,539.105,0.0
52139.0,STARLINK-3730,PAYLOAD,2023-06-19 01:06:49,15.0883383,8.88e-05,53.216,224.2475,91.2025,268.9069,9.6578e-05,1.249e-05,0.0,0 STARLINK-3730,1 52139U 22029BD  23170.04641171  .00001249  00000-0  96578-4 0  9997,2 52139  53.2160 224.2475 0000888  91.2025 268.9069 15.08833830 70633,6917.899,95.438,540.379,539.15,0.0
52139.0,STARLINK-3730,PAYLOAD,2023-06-19 10:39:08,15.08839978,9.11e-05,53.216,222.4635,91.7289,268.3807,0.00015205,2.133e-05,0.0,0 STARLINK-3730,1 52139U 22029BD  23170.44384797  .00002133  00000-0  15205-3 0  9999,2 52139  53.2160 222.4635 0000911  91.7289 268.3807 15.08839978 70694,6917.88,95.438,540.376,539.115,0.0
52139.0,STARLINK-3730,PAYLOAD,2023-06-19 15:25:17,15.08842844,9.22e-05,53.2159,221.5713,91.1155,268.9943,0.00017141,2.442e-05,0.0,0 STARLINK-3730,1 52139U 22029BD  23170.64256624  .00002442  00000-0  17141-3 0  9992,2 52139  53.2159 221.5713 0000922  91.1155 268.9943 15.08842844 70724,6917.872,95.437,540.375,539.099,0.0
52139.0,STARLINK-3730,PAYLOAD,2023-06-19 20:11:27,15.08838145,8.73e-05,53.2159,220.6796,88.8153,271.2939,0.00010001,1.304e-05,0.0,0 STARLINK-3730,1 52139U 22029BD  23170.84129136  .00001304  00000-0  10001-3 0  9995,2 52139  53.2159 220.6796 0000873  88.8153 271.2939 15.08838145 70755,6917.886,95.438,540.355,539.147,0.0
52139.0,STARLINK-3730,PAYLOAD,2023-06-20 02:33:00,15.08836231,0.0001006,53.2162,219.4904,92.7659,267.3448,0.00011108,1.48e-05,0.0,0 STARLINK-3730,1 52139U 22029BD  23171.10625334  .00001480  00000-0  11108-3 0  9990,2 52139  53.2162 219.4904 0001006  92.7659 267.3448 15.08836231 70799,6917.892,95.438,540.453,539.061,0.0
52139.0,STARLINK-3730,PAYLOAD,2023-06-20 08:54:33,15.08832495,9.31e-05,53.2162,218.3009,90.065,270.0449,4.4386e-05,4.19e-06,0.0,0 STARLINK-3730,1 52139U 22029BD  23171.37121831  .00000419  00000-0  44386-4 0  9998,2 52139  53.2162 218.3009 0000931  90.0650 270.0449 15.08832495 70836,6917.903,95.438,540.412,539.124,0.0
52139.0,STARLINK-3730,PAYLOAD,2023-06-21 11:56:06,15.08842556,9.36e-05,53.2161,213.2453,83.0754,277.0345,8.4453e-05,1.057e-05,0.0,0 STARLINK-3730,1 52139U 22029BD  23172.49729314  .00001057  00000-0  84453-4 0  9990,2 52139  53.2161 213.2453 0000936  83.0754 277.0345 15.08842556 71005,6917.873,95.437,540.385,539.09,0.0
52139.0,STARLINK-3730,PAYLOAD,2023-06-21 19:53:01,15.08844338,9.62e-05,53.2167,211.7587,83.9278,276.1824,4.697e-05,4.6e-06,0.0,0 STARLINK-3730,1 52139U 22029BD  23172.82849266  .00000460  00000-0  46970-4 0  9995,2 52139  53.2167 211.7587 0000962  83.9278 276.1824 15.08844338 71058,6917.867,95.437,540.398,539.067,0.0
52139.0,STARLINK-3730,PAYLOAD,2023-06-23 02:05:21,15.08843496,9.44e-05,53.2158,206.1085,81.2294,278.8805,8.9725e-05,1.141e-05,0.0,0 STARLINK-3730,1 52139U 22029BD  23174.08705383  .00001141  00000-0  89725-4 0  9998,2 52139  53.2158 206.1085 0000944  81.2294 278.8805 15.08843496 71241,6917.87,95.437,540.388,539.082,0.0
52139.0,STARLINK-3730,PAYLOAD,2023-06-24 01:56:08,15.08837127,9.88e-05,53.2158,201.6481,80.8522,279.2581,2.7735e-05,1.54e-06,0.0,0 STARLINK-3730,1 52139U 22029BD  23175.08065799  .00000154  00000-0  27735-4 0  9995,2 52139  53.2158 201.6481 0000988  80.8522 279.2581 15.08837127 71394,6917.889,95.438,540.438,539.071,0.0
52139.0,STARLINK-3730,PAYLOAD,2023-06-25 08:08:28,15.08842501,0.0001045,53.2159,195.9979,84.3489,275.7622,6.0009e-05,6.67e-06,0.0,0 STARLINK-3730,1 52139U 22029BD  23176.33921384  .00000667  00000-0  60009-4 0  9995,2 52139  53.2159 195.9979 0001045  84.3489 275.7622 15.08842501 71588,6917.873,95.437,540.461,539.015,0.0
52139.0,STARLINK-3730,PAYLOAD,2023-06-26 01:37:42,15.08836574,0.0001034,53.2157,192.727,82.6352,277.4758,7.5613e-05,9.16e-06,0.0,0 STARLINK-3730,1 52139U 22029BD  23177.06785743  .00000916  00000-0  75613-4 0  9997,2 52139  53.2157 192.7270 0001034  82.6352 277.4758 15.08836574 71697,6917.891,95.438,540.471,539.041,0.0
52139.0,STARLINK-3730,PAYLOAD,2023-06-27 07:50:02,15.08835658,0.000106,53.2157,187.0771,80.4129,279.6983,7.5384e-06,-1.68e-06,0.0,0 STARLINK-3730,1 52139U 22029BD  23178.32642247 -.00000168  00000-0  75384-5 0  9994,2 52139  53.2157 187.0771 0001060  80.4129 279.6983 15.08835658 71884,6917.894,95.438,540.492,539.025,0.0
